SPOT 6                  
1 38755U 12047A   26187.81806416  .00000363  00000+0  88057-4 0  9993
2 38755  98.2106 254.8967 0001173  78.3153 281.8178 14.58535781735913
SPOT 7                  
1 40053U 14034A   26187.83781800  .00000476  00000+0  10629-3 0  9990
2 40053  98.0613 249.8227 0001492  97.9776 262.1594 14.60976668640008
